CCSDS_OMM_VERS = 2.0
CREATION_DATE  = 
ORIGINATOR     = 

OBJECT_NAME    = STARLINK-36746
OBJECT_ID      = 2026-026N
CENTER_NAME    = EARTH
REF_FRAME      = TEME
TIME_SYSTEM    = UTC
MEAN_ELEMENT_THEORY = SGP/SGP4

EPOCH          = 2026-03-11T15:47:43.916352
MEAN_MOTION    = 15.49208981
ECCENTRICITY   = .0000682
INCLINATION    = 97.2848
RA_OF_ASC_NODE = 125.0198
ARG_OF_PERICENTER = 81.4971
MEAN_ANOMALY   = 278.6357

EPHEMERIS_TYPE = 0
CLASSIFICATION_TYPE = U
NORAD_CAT_ID   = 67733
ELEMENT_SET_NO = 999
REV_AT_EPOCH   = 441
BSTAR          = .2048E-2
MEAN_MOTION_DOT = .112983E-2
MEAN_MOTION_DDOT = 0

CCSDS_OMM_VERS = 2.0
CREATION_DATE  = 
ORIGINATOR     = 

OBJECT_NAME    = STARLINK-36749
OBJECT_ID      = 2026-026P
CENTER_NAME    = EARTH
REF_FRAME      = TEME
TIME_SYSTEM    = UTC
MEAN_ELEMENT_THEORY = SGP/SGP4

EPOCH          = 2026-03-11T17:15:12.250656
MEAN_MOTION    = 15.48528219
ECCENTRICITY   = .0001509
INCLINATION    = 97.2838
RA_OF_ASC_NODE = 125.2429
ARG_OF_PERICENTER = 113.6560
MEAN_ANOMALY   = 246.4850

EPHEMERIS_TYPE = 0
CLASSIFICATION_TYPE = U
NORAD_CAT_ID   = 67734
ELEMENT_SET_NO = 999
REV_AT_EPOCH   = 443
BSTAR          = .10215E-2
MEAN_MOTION_DOT = .54577E-3
MEAN_MOTION_DDOT = 0

CCSDS_OMM_VERS = 2.0
CREATION_DATE  = 
ORIGINATOR     = 

OBJECT_NAME    = STARLINK-36691
OBJECT_ID      = 2026-026Q
CENTER_NAME    = EARTH
REF_FRAME      = TEME
TIME_SYSTEM    = UTC
MEAN_ELEMENT_THEORY = SGP/SGP4

EPOCH          = 2026-03-11T20:00:01.999008
MEAN_MOTION    = 15.40566085
ECCENTRICITY   = .0001421
INCLINATION    = 97.2851
RA_OF_ASC_NODE = 125.4436
ARG_OF_PERICENTER = 69.9377
MEAN_ANOMALY   = 28.0659

EPHEMERIS_TYPE = 0
CLASSIFICATION_TYPE = U
NORAD_CAT_ID   = 67735
ELEMENT_SET_NO = 999
REV_AT_EPOCH   = 579
BSTAR          = -.51923E-1
MEAN_MOTION_DOT = -.1891177E-1
MEAN_MOTION_DDOT = 0

CCSDS_OMM_VERS = 2.0
CREATION_DATE  = 
ORIGINATOR     = 

OBJECT_NAME    = STARLINK-36317
OBJECT_ID      = 2026-026R
CENTER_NAME    = EARTH
REF_FRAME      = TEME
TIME_SYSTEM    = UTC
MEAN_ELEMENT_THEORY = SGP/SGP4

EPOCH          = 2026-03-11T20:00:01.999008
MEAN_MOTION    = 15.40664809
ECCENTRICITY   = .0001643
INCLINATION    = 97.2850
RA_OF_ASC_NODE = 125.4372
ARG_OF_PERICENTER = 76.2644
MEAN_ANOMALY   = 6.1118

EPHEMERIS_TYPE = 0
CLASSIFICATION_TYPE = U
NORAD_CAT_ID   = 67736
ELEMENT_SET_NO = 999
REV_AT_EPOCH   = 566
BSTAR          = -.50384E-1
MEAN_MOTION_DOT = -.18462E-1
MEAN_MOTION_DDOT = 0

CCSDS_OMM_VERS = 2.0
CREATION_DATE  = 
ORIGINATOR     = 

OBJECT_NAME    = STARLINK-36330
OBJECT_ID      = 2026-026S
CENTER_NAME    = EARTH
REF_FRAME      = TEME
TIME_SYSTEM    = UTC
MEAN_ELEMENT_THEORY = SGP/SGP4

EPOCH          = 2026-03-11T20:00:01.999008
MEAN_MOTION    = 15.41045174
ECCENTRICITY   = .0001717
INCLINATION    = 97.2855
RA_OF_ASC_NODE = 125.4494
ARG_OF_PERICENTER = 64.5986
MEAN_ANOMALY   = 45.5335

EPHEMERIS_TYPE = 0
CLASSIFICATION_TYPE = U
NORAD_CAT_ID   = 67737
ELEMENT_SET_NO = 999
REV_AT_EPOCH   = 566
BSTAR          = -.5192E-1
MEAN_MOTION_DOT = -.1918504E-1
MEAN_MOTION_DDOT = 0

CCSDS_OMM_VERS = 2.0
CREATION_DATE  = 
ORIGINATOR     = 

OBJECT_NAME    = STARLINK-36327
OBJECT_ID      = 2026-026T
CENTER_NAME    = EARTH
REF_FRAME      = TEME
TIME_SYSTEM    = UTC
MEAN_ELEMENT_THEORY = SGP/SGP4

EPOCH          = 2026-03-11T20:00:01.999008
MEAN_MOTION    = 15.40964188
ECCENTRICITY   = .0001751
INCLINATION    = 97.2845
RA_OF_ASC_NODE = 125.4561
ARG_OF_PERICENTER = 74.2917
MEAN_ANOMALY   = 51.2525

EPHEMERIS_TYPE = 0
CLASSIFICATION_TYPE = U
NORAD_CAT_ID   = 67738
ELEMENT_SET_NO = 999
REV_AT_EPOCH   = 566
BSTAR          = -.50541E-1
MEAN_MOTION_DOT = -.1868123E-1
MEAN_MOTION_DDOT = 0

CCSDS_OMM_VERS = 2.0
CREATION_DATE  = 
ORIGINATOR     = 

OBJECT_NAME    = STARLINK-36329
OBJECT_ID      = 2026-026U
CENTER_NAME    = EARTH
REF_FRAME      = TEME
TIME_SYSTEM    = UTC
MEAN_ELEMENT_THEORY = SGP/SGP4

EPOCH          = 2026-03-11T20:00:01.999008
MEAN_MOTION    = 15.42012739
ECCENTRICITY   = .0002074
INCLINATION    = 97.2850
RA_OF_ASC_NODE = 125.4879
ARG_OF_PERICENTER = 73.8937
MEAN_ANOMALY   = 134.5393

EPHEMERIS_TYPE = 0
CLASSIFICATION_TYPE = U
NORAD_CAT_ID   = 67739
ELEMENT_SET_NO = 999
REV_AT_EPOCH   = 566
BSTAR          = -.50011E-1
MEAN_MOTION_DOT = -.190989E-1
MEAN_MOTION_DDOT = 0

CCSDS_OMM_VERS = 2.0
CREATION_DATE  = 
ORIGINATOR     = 

OBJECT_NAME    = STARLINK-36737
OBJECT_ID      = 2026-026V
CENTER_NAME    = EARTH
REF_FRAME      = TEME
TIME_SYSTEM    = UTC
MEAN_ELEMENT_THEORY = SGP/SGP4

EPOCH          = 2026-03-11T20:00:01.999008
MEAN_MOTION    = 15.41121623
ECCENTRICITY   = .0001968
INCLINATION    = 97.2848
RA_OF_ASC_NODE = 125.4620
ARG_OF_PERICENTER = 63.7891
MEAN_ANOMALY   = 75.7521

EPHEMERIS_TYPE = 0
CLASSIFICATION_TYPE = U
NORAD_CAT_ID   = 67740
ELEMENT_SET_NO = 999
REV_AT_EPOCH   = 566
BSTAR          = -.5058E-1
MEAN_MOTION_DOT = -.1878388E-1
MEAN_MOTION_DDOT = 0

CCSDS_OMM_VERS = 2.0
CREATION_DATE  = 
ORIGINATOR     = 

OBJECT_NAME    = STARLINK-36740
OBJECT_ID      = 2026-026W
CENTER_NAME    = EARTH
REF_FRAME      = TEME
TIME_SYSTEM    = UTC
MEAN_ELEMENT_THEORY = SGP/SGP4

EPOCH          = 2026-03-11T20:00:01.999008
MEAN_MOTION    = 15.49355317
ECCENTRICITY   = .0002122
INCLINATION    = 97.2856
RA_OF_ASC_NODE = 125.4294
ARG_OF_PERICENTER = 87.3061
MEAN_ANOMALY   = 353.8987

EPHEMERIS_TYPE = 0
CLASSIFICATION_TYPE = U
NORAD_CAT_ID   = 67741
ELEMENT_SET_NO = 999
REV_AT_EPOCH   = 566
BSTAR          = -.42704E-1
MEAN_MOTION_DOT = -.2079005E-1
MEAN_MOTION_DDOT = 0

CCSDS_OMM_VERS = 2.0
CREATION_DATE  = 
ORIGINATOR     = 

OBJECT_NAME    = STARLINK-36693
OBJECT_ID      = 2026-026X
CENTER_NAME    = EARTH
REF_FRAME      = TEME
TIME_SYSTEM    = UTC
MEAN_ELEMENT_THEORY = SGP/SGP4

EPOCH          = 2026-03-11T20:00:01.999008
MEAN_MOTION    = 15.47732581
ECCENTRICITY   = .0001537
INCLINATION    = 97.2858
RA_OF_ASC_NODE = 125.4285
ARG_OF_PERICENTER = 61.4788
MEAN_ANOMALY   = 14.4881

EPHEMERIS_TYPE = 0
CLASSIFICATION_TYPE = U
NORAD_CAT_ID   = 67742
ELEMENT_SET_NO = 999
REV_AT_EPOCH   = 579
BSTAR          = -.42461E-1
MEAN_MOTION_DOT = -.1965343E-1
MEAN_MOTION_DDOT = 0

CCSDS_OMM_VERS = 2.0
CREATION_DATE  = 
ORIGINATOR     = 

OBJECT_NAME    = STARLINK-36717
OBJECT_ID      = 2026-026Y
CENTER_NAME    = EARTH
REF_FRAME      = TEME
TIME_SYSTEM    = UTC
MEAN_ELEMENT_THEORY = SGP/SGP4

EPOCH          = 2026-03-11T20:00:01.999008
MEAN_MOTION    = 15.43433167
ECCENTRICITY   = .000183
INCLINATION    = 97.2858
RA_OF_ASC_NODE = 125.4573
ARG_OF_PERICENTER = 75.7595
MEAN_ANOMALY   = 59.5550

EPHEMERIS_TYPE = 0
CLASSIFICATION_TYPE = U
NORAD_CAT_ID   = 67743
ELEMENT_SET_NO = 999
REV_AT_EPOCH   = 579
BSTAR          = -.47528E-1
MEAN_MOTION_DOT = -.1904553E-1
MEAN_MOTION_DDOT = 0

CCSDS_OMM_VERS = 2.0
CREATION_DATE  = 
ORIGINATOR     = 

OBJECT_NAME    = STARLINK-36692
OBJECT_ID      = 2026-026Z
CENTER_NAME    = EARTH
REF_FRAME      = TEME
TIME_SYSTEM    = UTC
MEAN_ELEMENT_THEORY = SGP/SGP4

EPOCH          = 2026-03-11T20:00:01.999008
MEAN_MOTION    = 15.45430561
ECCENTRICITY   = .0001683
INCLINATION    = 97.2862
RA_OF_ASC_NODE = 125.4427
ARG_OF_PERICENTER = 82.4921
MEAN_ANOMALY   = 20.0986

EPHEMERIS_TYPE = 0
CLASSIFICATION_TYPE = U
NORAD_CAT_ID   = 67744
ELEMENT_SET_NO = 999
REV_AT_EPOCH   = 566
BSTAR          = -.44401E-1
MEAN_MOTION_DOT = -.1904558E-1
MEAN_MOTION_DDOT = 0

