STARLINK-36746          
1 67733U 26026N   26070.65814718  .00112983  00000+0  20480-2 0  9996
2 67733  97.2848 125.0198 0000682  81.4971 278.6357 15.49208981  4412
STARLINK-36749          
1 67734U 26026P   26070.71889179  .00054577  00000+0  10215-2 0  9996
2 67734  97.2838 125.2429 0001509 113.6560 246.4850 15.48528219  4433
STARLINK-36691          
1 67735U 26026Q   26070.83335647 -.01891177  00000+0 -51923-1 0  9994
2 67735  97.2851 125.4436 0001421  69.9377  28.0659 15.40566085  5797
STARLINK-36317          
1 67736U 26026R   26070.83335647 -.01846200  00000+0 -50384-1 0  9992
2 67736  97.2850 125.4372 0001643  76.2644   6.1118 15.40664809  5666
STARLINK-36330          
1 67737U 26026S   26070.83335647 -.01918504  00000+0 -51920-1 0  9997
2 67737  97.2855 125.4494 0001717  64.5986  45.5335 15.41045174  5665
STARLINK-36327          
1 67738U 26026T   26070.83335647 -.01868123  00000+0 -50541-1 0  9997
2 67738  97.2845 125.4561 0001751  74.2917  51.2525 15.40964188  5669
STARLINK-36329          
1 67739U 26026U   26070.83335647 -.01909890  00000+0 -50011-1 0  9997
2 67739  97.2850 125.4879 0002074  73.8937 134.5393 15.42012739  5660
STARLINK-36737          
1 67740U 26026V   26070.83335647 -.01878388  00000+0 -50580-1 0  9997
2 67740  97.2848 125.4620 0001968  63.7891  75.7521 15.41121623  5662
STARLINK-36740          
1 67741U 26026W   26070.83335647 -.02079005  00000+0 -42704-1 0  9997
2 67741  97.2856 125.4294 0002122  87.3061 353.8987 15.49355317  5666
STARLINK-36693          
1 67742U 26026X   26070.83335647 -.01965343  00000+0 -42461-1 0  9996
2 67742  97.2858 125.4285 0001537  61.4788  14.4881 15.47732581  5794
STARLINK-36717          
1 67743U 26026Y   26070.83335647 -.01904553  00000+0 -47528-1 0  9992
2 67743  97.2858 125.4573 0001830  75.7595  59.5550 15.43433167  5792
STARLINK-36692          
1 67744U 26026Z   26070.83335647 -.01904558  00000+0 -44401-1 0  9995
2 67744  97.2862 125.4427 0001683  82.4921  20.0986 15.45430561  5669
